{
    "links": {
        "self": "http://www.neowsapp.com/rest/v1/neo/3331095?api_key=iIulBulltgU6a56xZRHN4H3l9WmuAYTsLGpBGhQ2"
    },
    "id": "3331095",
    "neo_reference_id": "3331095",
    "name": "(2006 HX57)",
    "designation": "2006 HX57",
    "nasa_jpl_url": "http://ssd.jpl.nasa.gov/sbdb.cgi?sstr=3331095",
    "absolute_magnitude_h": 25.2,
    "estimated_diameter": {
        "kilometers": {
            "estimated_diameter_min": 0.0242412481,
            "estimated_diameter_max": 0.0542050786
        },
        "meters": {
            "estimated_diameter_min": 24.2412481101,
            "estimated_diameter_max": 54.2050786336
        },
        "miles": {
            "estimated_diameter_min": 0.0150628086,
            "estimated_diameter_max": 0.0336814639
        },
        "feet": {
            "estimated_diameter_min": 79.5316564495,
            "estimated_diameter_max": 177.8381901842
        }
    },
    "is_potentially_hazardous_asteroid": false,
    "close_approach_data": [
        {
            "close_approach_date": "2006-05-06",
            "close_approach_date_full": "2006-May-06 09:36",
            "epoch_date_close_approach": 1146908160000,
            "relative_velocity": {
                "kilometers_per_second": "11.4961537701",
                "kilometers_per_hour": "41386.1535722239",
                "miles_per_hour": "25715.7463682521"
            },
            "miss_distance": {
                "astronomical": "0.009500845",
                "lunar": "3.695828705",
                "kilometers": "1421306.17520015",
                "miles": "883158.70465607"
            },
            "orbiting_body": "Moon"
        },
        {
            "close_approach_date": "2006-05-06",
            "close_approach_date_full": "2006-May-06 14:32",
            "epoch_date_close_approach": 1146925920000,
            "relative_velocity": {
                "kilometers_per_second": "10.7276750419",
                "kilometers_per_hour": "38619.6301509815",
                "miles_per_hour": "23996.736301314"
            },
            "miss_distance": {
                "astronomical": "0.0076006509",
                "lunar": "2.9566532001",
                "kilometers": "1137041.185253583",
                "miles": "706524.6305341254"
            },
            "orbiting_body": "Earth"
        }
    ],
    "orbital_data": {
        "orbit_id": "12",
        "orbit_determination_date": "2017-04-06 09:08:43",
        "first_observation_date": "2006-04-30",
        "last_observation_date": "2006-05-06",
        "data_arc_in_days": 6,
        "observations_used": 84,
        "orbit_uncertainty": "7",
        "minimum_orbit_intersection": ".00153048",
        "jupiter_tisserand_invariant": "3.902",
        "epoch_osculation": "2459000.5",
        "eccentricity": ".4951615605765599",
        "semi_major_axis": "1.808212723249337",
        "inclination": ".1969434319140106",
        "ascending_node_longitude": "111.2415312057551",
        "orbital_period": "888.122163119615",
        "perihelion_distance": ".9128552893508041",
        "perihelion_argument": "160.0832841357045",
        "aphelion_distance": "2.703570157147869",
        "perihelion_time": "2459225.440190566272",
        "mean_anomaly": "268.8205745036095",
        "mean_motion": ".4053496410172505",
        "equinox": "J2000",
        "orbit_class": {
            "orbit_class_type": "APO",
            "orbit_class_description": "Near-Earth asteroid orbits which cross the Earth’s orbit similar to that of 1862 Apollo",
            "orbit_class_range": "a (semi-major axis) > 1.0 AU; q (perihelion) < 1.017 AU"
        }
    },
    "is_sentry_object": false
}